{
    "links": {
        "self": "http://www.neowsapp.com/rest/v1/neo/3467149?api_key=iIulBulltgU6a56xZRHN4H3l9WmuAYTsLGpBGhQ2"
    },
    "id": "3467149",
    "neo_reference_id": "3467149",
    "name": "(2009 RA4)",
    "designation": "2009 RA4",
    "nasa_jpl_url": "http://ssd.jpl.nasa.gov/sbdb.cgi?sstr=3467149",
    "absolute_magnitude_h": 21.6,
    "estimated_diameter": {
        "kilometers": {
            "estimated_diameter_min": 0.1272198785,
            "estimated_diameter_max": 0.2844722965
        },
        "meters": {
            "estimated_diameter_min": 127.2198785394,
            "estimated_diameter_max": 284.4722965033
        },
        "miles": {
            "estimated_diameter_min": 0.0790507431,
            "estimated_diameter_max": 0.1767628354
        },
        "feet": {
            "estimated_diameter_min": 417.3880663071,
            "estimated_diameter_max": 933.3080892598
        }
    },
    "is_potentially_hazardous_asteroid": false,
    "close_approach_data": [
        {
            "close_approach_date": "2009-09-07",
            "close_approach_date_full": "2009-Sep-07 14:32",
            "epoch_date_close_approach": 1252333920000,
            "relative_velocity": {
                "kilometers_per_second": "4.0927127143",
                "kilometers_per_hour": "14733.7657713316",
                "miles_per_hour": "9154.9890705255"
            },
            "miss_distance": {
                "astronomical": "0.2490579007",
                "lunar": "96.8835233723",
                "kilometers": "37258531.451391509",
                "miles": "23151377.9002364642"
            },
            "orbiting_body": "Earth"
        }
    ],
    "orbital_data": {
        "orbit_id": "14",
        "orbit_determination_date": "2017-04-06 09:00:05",
        "first_observation_date": "2009-09-14",
        "last_observation_date": "2009-11-11",
        "data_arc_in_days": 58,
        "observations_used": 39,
        "orbit_uncertainty": "6",
        "minimum_orbit_intersection": ".243406",
        "jupiter_tisserand_invariant": "3.468",
        "epoch_osculation": "2459000.5",
        "eccentricity": ".4491466005276692",
        "semi_major_axis": "2.267122027583566",
        "inclination": "6.201438991783697",
        "ascending_node_longitude": "358.1688767406787",
        "orbital_period": "1246.840130071699",
        "perihelion_distance": "1.248851875913011",
        "perihelion_argument": "345.2397627152947",
        "aphelion_distance": "3.285392179254122",
        "perihelion_time": "2458819.047373419903",
        "mean_anomaly": "52.39079493301087",
        "mean_motion": ".2887298790898704",
        "equinox": "J2000",
        "orbit_class": {
            "orbit_class_type": "AMO",
            "orbit_class_description": "Near-Earth asteroid orbits similar to that of 1221 Amor",
            "orbit_class_range": "1.017 AU < q (perihelion) < 1.3 AU"
        }
    },
    "is_sentry_object": false
}